NORAD_CAT_ID,OBJECT_NAME,OBJECT_TYPE,EPOCH,MEAN_MOTION,ECCENTRICITY,INCLINATION,RA_OF_ASC_NODE,ARG_OF_PERICENTER,MEAN_ANOMALY,BSTAR,MEAN_MOTION_DOT,MEAN_MOTION_DDOT,TLE_LINE0,TLE_LINE1,TLE_LINE2,SEMIMAJOR_AXIS,PERIOD,APOGEE,PERIGEE,DECAYED
49151.0,STARLINK-3102,PAYLOAD,2022-09-27 01:45:39,14.96705006,0.0002569,70.0023,190.3321,225.9893,134.1054,-4.429e-05,-5.98e-06,0.0,0 STARLINK-3102,1 49151U 21082X   22270.07337779 -.00000598  00000-0 -44290-4 0  9996,2 49151  70.0023 190.3321 0002569 225.9893 134.1054 14.96705006 59496,6955.223000000001,96.211,578.874,575.3009999999998,0.0
49151.0,STARLINK-3102,PAYLOAD,2022-09-27 03:21:54,14.96699247,0.0002485999999999,70.002,190.1631,241.7549,118.3358,3.5552e-05,3.15e-06,0.0,0 STARLINK-3102,1 49151U 21082X   22270.14021241  .00000315  00000-0  35552-4 0  9994,2 49151  70.0020 190.1631 0002486 241.7549 118.3358 14.96699247 59497,6955.24,96.212,578.835,575.376,0.0
49151.0,STARLINK-3102,PAYLOAD,2022-09-28 01:49:13,14.96712435,0.0002322,70.0021,187.8096,242.8964,117.1958,0.00013011,1.398e-05,0.0,0 STARLINK-3102,1 49151U 21082X   22271.07585204  .00001398  00000-0  13011-3 0  9998,2 49151  70.0021 187.8096 0002322 242.8964 117.1958 14.96712435 59643,6955.2,96.211,578.68,575.45,0.0
49151.0,STARLINK-3102,PAYLOAD,2022-09-28 11:26:39,14.96717506,0.0002575,70.0027,186.7989,264.2362,95.8503,0.00015991,1.739e-05,0.0,0 STARLINK-3102,1 49151U 21082X   22271.47684031  .00001739  00000-0  15991-3 0  9998,2 49151  70.0027 186.7989 0002575 264.2362  95.8503 14.96717506 59695,6955.184,96.211,578.84,575.258,0.0
49151.0,STARLINK-3102,PAYLOAD,2022-09-28 21:04:04,14.96700035,0.0002353,70.002,185.7907,270.6902,89.3986,0.00036265,4.06e-05,0.0,0 STARLINK-3102,1 49151U 21082X   22271.87783550  .00004060  00000-0  36265-3 0  9995,2 49151  70.0020 185.7907 0002353 270.6902  89.3986 14.96700035 59751,6955.238,96.212,578.74,575.466,0.0
49151.0,STARLINK-3102,PAYLOAD,2022-09-29 03:29:02,14.96705056,0.0002342,70.0019,185.1172,261.1683,98.921,0.00019852,2.181e-05,0.0,0 STARLINK-3102,1 49151U 21082X   22272.14516685  .00002181  00000-0  19852-3 0  9994,2 49151  70.0019 185.1172 0002342 261.1683  98.9210 14.96705056 59806,6955.222,96.211,578.716,575.4590000000002,0.0
49151.0,STARLINK-3102,PAYLOAD,2022-09-29 11:30:13,14.96709829,0.0002776,70.0017,184.2773,258.1577,101.927,6.3475e-05,6.35e-06,0.0,0 STARLINK-3102,1 49151U 21082X   22272.47932747  .00000635  00000-0  63475-4 0  9994,2 49151  70.0017 184.2773 0002776 258.1577 101.9270 14.96709829 59847,6955.208000000001,96.211,579.003,575.1419999999998,0.0
49151.0,STARLINK-3102,PAYLOAD,2022-09-29 21:07:39,14.96719598,0.0002836,70.0008,183.2699,258.9235,101.1604,-3.0053e-05,-4.36e-06,0.0,0 STARLINK-3102,1 49151U 21082X   22272.88031492 -.00000436  00000-0 -30053-4 0  9993,2 49151  70.0008 183.2699 0002836 258.9235 101.1604 14.96719598 59903,6955.177,96.21,579.015,575.07,0.0
49151.0,STARLINK-3102,PAYLOAD,2022-09-30 03:32:36,14.96720088,0.000273,70.0007,182.5977,260.6745,99.4105,-1.8889e-05,-3.08e-06,0.0,0 STARLINK-3102,1 49151U 21082X   22273.14764220 -.00000308  00000-0 -18889-4 0  9996,2 49151  70.0007 182.5977 0002730 260.6745  99.4105 14.96720088 59958,6955.176,96.21,578.94,575.1419999999998,0.0
49151.0,STARLINK-3102,PAYLOAD,2022-09-30 11:33:46,14.96726585,0.0003016,70.0013,181.7575,261.2724,98.8093,3.6847e-05,3.3e-06,0.0,0 STARLINK-3102,1 49151U 21082X   22273.48179391  .00000330  00000-0  36847-4 0  9999,2 49151  70.0013 181.7575 0003016 261.2724  98.8093 14.96726585 60007,6955.156,96.21,579.118,574.923,0.0
49151.0,STARLINK-3102,PAYLOAD,2022-10-01 03:36:10,14.96716943,0.0002948999999999,70.0009,180.0767,258.7796,101.3031,3.1384e-05,2.68e-06,0.0,0 STARLINK-3102,1 49151U 21082X   22274.15011780  .00000268  00000-0  31384-4 0  9992,2 49151  70.0009 180.0767 0002949 258.7796 101.3031 14.96716943 60101,6955.186,96.211,579.102,575.0,0.0
49151.0,STARLINK-3102,PAYLOAD,2022-10-01 11:37:20,14.96723922,0.0003263,70.0009,179.2364,259.755,100.324,7.3934e-05,7.55e-06,0.0,0 STARLINK-3102,1 49151U 21082X   22274.48427002  .00000755  00000-0  73934-4 0  9994,2 49151  70.0009 179.2364 0003263 259.7550 100.3240 14.96723922 60143,6955.1640000000025,96.21,579.298,574.76,0.0
49151.0,STARLINK-3102,PAYLOAD,2022-10-01 21:14:47,14.967143099999998,0.0003291,70.0001,178.2294,258.2085,101.8704,-2.1947e-07,-9.4e-07,0.0,0 STARLINK-3102,1 49151U 21082X   22274.88526903 -.00000094  00000-0 -21947-6 0  9995,2 49151  70.0001 178.2294 0003291 258.2085 101.8704 14.96714310 60203,6955.194,96.211,579.3480000000002,574.77,0.0
49151.0,STARLINK-3102,PAYLOAD,2022-10-02 03:39:45,14.96706089,0.0003092,69.9998,177.55599999999995,258.115,101.9662,-0.00013317,-1.615e-05,0.0,0 STARLINK-3102,1 49151U 21082X   22275.15260597 -.00001615  00000-0 -13317-3 0  9999,2 49151  69.9998 177.5560 0003092 258.1150 101.9662 14.96706089 60257,6955.219,96.211,579.235,574.934,0.0
49151.0,STARLINK-3102,PAYLOAD,2022-10-02 19:42:07,14.96709427,0.0003129999999999,70.0007,175.8757,258.3168,101.7639,-0.00010168,-1.255e-05,0.0,0 STARLINK-3102,1 49151U 21082X   22275.82092499 -.00001255  00000-0 -10168-3 0  9998,2 49151  70.0007 175.8757 0003130 258.3168 101.7639 14.96709427 60345,6955.209,96.211,579.251,574.8969999999998,0.0
49151.0,STARLINK-3102,PAYLOAD,2022-10-03 03:43:18,14.96716641,0.0003138,70.0002,175.035,258.8189,101.2616,2.4109e-05,1.84e-06,0.0,0 STARLINK-3102,1 49151U 21082X   22276.15507806  .00000184  00000-0  24109-4 0  9997,2 49151  70.0002 175.0350 0003138 258.8189 101.2616 14.96716641 60400,6955.187,96.211,579.234,574.869,0.0
49151.0,STARLINK-3102,PAYLOAD,2022-10-03 10:08:15,14.96711097,0.0003159,69.9996,174.3628,256.678,103.4026,0.0003226,3.602e-05,0.0,0 STARLINK-3102,1 49151U 21082X   22276.42240294  .00003602  00000-0  32260-3 0  9996,2 49151  69.9996 174.3628 0003159 256.6780 103.4026 14.96711097 60437,6955.204000000002,96.211,579.266,574.872,0.0
49151.0,STARLINK-3102,PAYLOAD,2022-10-04 02:10:37,14.96724587,0.0003207,69.9996,172.6819,262.4896,97.5898,0.00019268,2.115e-05,0.0,0 STARLINK-3102,1 49151U 21082X   22277.09071290  .00002115  00000-0  19268-3 0  9999,2 49151  69.9996 172.6819 0003207 262.4896  97.5898 14.96724587 60547,6955.1619999999975,96.21,579.257,574.7959999999998,0.0
49151.0,STARLINK-3102,PAYLOAD,2022-10-04 10:11:49,14.96719104,0.0003325,69.9989,171.8413,258.3105,101.768,0.00017092,1.865e-05,0.0,0 STARLINK-3102,1 49151U 21082X   22277.42487503  .00001865  00000-0  17092-3 0  9998,2 49151  69.9989 171.8413 0003325 258.3105 101.7680 14.96719104 60588,6955.179,96.21,579.357,574.731,0.0
49151.0,STARLINK-3102,PAYLOAD,2022-10-05 02:14:13,14.96709855,0.0003236,69.9994,170.1609,257.2933,102.7864,-2.2066e-05,-3.44e-06,0.0,0 STARLINK-3102,1 49151U 21082X   22278.09320667 -.00000344  00000-0 -22066-4 0  9990,2 49151  69.9994 170.1609 0003236 257.2933 102.7864 14.96709855 60690,6955.208000000001,96.211,579.323,574.822,0.0
49151.0,STARLINK-3102,PAYLOAD,2022-10-05 10:15:26,14.96693472,0.0002423,70.0018,169.3209,255.2851,104.8039,-0.00014542,-1.754e-05,0.0,0 STARLINK-3102,1 49151U 21082X   22278.42738435 -.00001754  00000-0 -14542-3 0  9998,2 49151  70.0018 169.3209 0002423 255.2851 104.8039 14.96693472 60739,6955.2580000000025,96.212,578.809,575.438,0.0
49151.0,STARLINK-3102,PAYLOAD,2022-10-05 19:52:23,14.97037797,0.0003963,69.9979,168.3124,211.5552,148.537,0.0034558999999999,0.00040024,0.0,0 STARLINK-3102,1 49151U 21082X   22278.82804536  .00040024  00000-0  34559-2 0  9998,2 49151  69.9979 168.3124 0003963 211.5552 148.5370 14.97037797 60792,6954.191999999999,96.19,578.813,573.3009999999998,0.0
49151.0,STARLINK-3102,PAYLOAD,2022-10-06 02:16:57,14.97275063,0.0002354,70.0005,167.6383,282.0399,78.0496,0.0060193999999999,0.00070509,0.0,0 STARLINK-3102,1 49151U 21082X   22279.09510629  .00070509  00000-0  60194-2 0  9990,2 49151  70.0005 167.6383 0002354 282.0399  78.0496 14.97275063 60841,6953.456999999999,96.175,576.9590000000002,573.685,0.0
49151.0,STARLINK-3102,PAYLOAD,2022-10-06 07:05:20,14.97448868,0.0002514,70.0022,167.1371,248.7441,111.3449,0.0077646,0.00091666,0.0,0 STARLINK-3102,1 49151U 21082X   22279.29537882  .00091666  00000-0  77646-2 0  9999,2 49151  70.0022 167.1371 0002514 248.7441 111.3449 14.97448868 60863,6952.919,96.164,576.5319999999998,573.036,0.0
49151.0,STARLINK-3102,PAYLOAD,2022-10-06 18:18:28,14.97615296,0.0002827,69.9993,165.9552,248.9045,111.1811,0.0085913,0.00102024,0.0,0 STARLINK-3102,1 49151U 21082X   22279.76283532  .00102024  00000-0  85913-2 0  9998,2 49151  69.9993 165.9552 0002827 248.9045 111.1811 14.97615296 60944,6952.404,96.153,576.234,572.303,0.0
49151.0,STARLINK-3102,PAYLOAD,2022-10-06 19:54:36,14.97667896,0.0002904999999999,69.9996,165.7895,245.9663,114.1192,0.0090337,0.00107512,0.0,0 STARLINK-3102,1 49151U 21082X   22279.82958695  .00107512  00000-0  90337-2 0  9997,2 49151  69.9996 165.7895 0002905 245.9663 114.1192 14.97667896 60943,6952.241,96.149,576.126,572.087,0.0
49151.0,STARLINK-3102,PAYLOAD,2022-10-07 02:19:17,14.97707049,0.0002783,70.0003,165.1199,248.6491,111.4371,0.0088753999999999,0.00105706,0.0,0 STARLINK-3102,1 49151U 21082X   22280.09673234  .00105706  00000-0  88754-2 0  9994,2 49151  70.0003 165.1199 0002783 248.6491 111.4371 14.97707049 60998,6952.12,96.147,575.92,572.05,0.0
49151.0,STARLINK-3102,PAYLOAD,2022-10-07 18:20:52,14.97910416,0.0003138,69.9998,163.4376,268.943,91.1369,0.0069751,0.00083222,0.0,0 STARLINK-3102,1 49151U 21082X   22280.76449645  .00083222  00000-0  69751-2 0  9999,2 49151  69.9998 163.4376 0003138 268.9430  91.1369 14.97910416 61096,6951.491,96.134,575.5369999999998,571.174,0.0
49151.0,STARLINK-3102,PAYLOAD,2022-10-07 21:33:09,14.97941998,0.0002907999999999,70.0014,163.1022,258.8769,101.2062,0.0070621,0.00084343,0.0,0 STARLINK-3102,1 49151U 21082X   22280.89802785  .00084343  00000-0  70621-2 0  9994,2 49151  70.0014 163.1022 0002908 258.8769 101.2062 14.97941998 61104,6951.393,96.132,575.279,571.237,0.0
